[{"OBJECT_NAME":"STARLINK-36657","OBJECT_ID":"2026-033Q","EPOCH":"2026-03-05T18:29:15.435456","MEAN_MOTION":15.82060314,"ECCENTRICITY":0.0002999,"INCLINATION":42.9965,"RA_OF_ASC_NODE":295.4076,"ARG_OF_PERICENTER":277.901,"MEAN_ANOMALY":82.1522,"EPHEMERIS_TYPE":0,"CLASSIFICATION_TYPE":"U","NORAD_CAT_ID":67835,"ELEMENT_SET_NO":999,"REV_AT_EPOCH":400,"BSTAR":0.00073877,"MEAN_MOTION_DOT":0.00158252,"MEAN_MOTION_DDOT":0},{"OBJECT_NAME":"STARLINK-36650","OBJECT_ID":"2026-033R","EPOCH":"2026-03-05T18:28:10.879968","MEAN_MOTION":15.82050659,"ECCENTRICITY":0.0002819,"INCLINATION":42.9964,"RA_OF_ASC_NODE":295.4016,"ARG_OF_PERICENTER":272.9852,"MEAN_ANOMALY":87.0697,"EPHEMERIS_TYPE":0,"CLASSIFICATION_TYPE":"U","NORAD_CAT_ID":67836,"ELEMENT_SET_NO":999,"REV_AT_EPOCH":400,"BSTAR":0.00058111,"MEAN_MOTION_DOT":0.00123809,"MEAN_MOTION_DDOT":0},{"OBJECT_NAME":"STARLINK-36649","OBJECT_ID":"2026-033S","EPOCH":"2026-03-05T18:27:05.989248","MEAN_MOTION":15.82105957,"ECCENTRICITY":0.0002486,"INCLINATION":42.9967,"RA_OF_ASC_NODE":295.3941,"ARG_OF_PERICENTER":273.6979,"MEAN_ANOMALY":86.3608,"EPHEMERIS_TYPE":0,"CLASSIFICATION_TYPE":"U","NORAD_CAT_ID":67837,"ELEMENT_SET_NO":999,"REV_AT_EPOCH":400,"BSTAR":0.0013626,"MEAN_MOTION_DOT":0.00297735,"MEAN_MOTION_DDOT":0},{"OBJECT_NAME":"STARLINK-36654","OBJECT_ID":"2026-033T","EPOCH":"2026-03-05T18:26:01.056192","MEAN_MOTION":15.820704,"ECCENTRICITY":0.0002514,"INCLINATION":42.9972,"RA_OF_ASC_NODE":295.3874,"ARG_OF_PERICENTER":273.9909,"MEAN_ANOMALY":86.0675,"EPHEMERIS_TYPE":0,"CLASSIFICATION_TYPE":"U","NORAD_CAT_ID":67838,"ELEMENT_SET_NO":999,"REV_AT_EPOCH":400,"BSTAR":0.0008548,"MEAN_MOTION_DOT":0.00183808,"MEAN_MOTION_DDOT":0},{"OBJECT_NAME":"STARLINK-36652","OBJECT_ID":"2026-033U","EPOCH":"2026-03-05T18:24:56.194848","MEAN_MOTION":15.82025688,"ECCENTRICITY":0.0001373,"INCLINATION":42.9965,"RA_OF_ASC_NODE":295.3818,"ARG_OF_PERICENTER":232.3868,"MEAN_ANOMALY":127.6879,"EPHEMERIS_TYPE":0,"CLASSIFICATION_TYPE":"U","NORAD_CAT_ID":67839,"ELEMENT_SET_NO":999,"REV_AT_EPOCH":400,"BSTAR":0.00058594,"MEAN_MOTION_DOT":0.00124692,"MEAN_MOTION_DDOT":0},{"OBJECT_NAME":"STARLINK-36651","OBJECT_ID":"2026-033V","EPOCH":"2026-03-05T18:23:51.255744","MEAN_MOTION":15.82018229,"ECCENTRICITY":0.0005681,"INCLINATION":42.9971,"RA_OF_ASC_NODE":295.3748,"ARG_OF_PERICENTER":151.6202,"MEAN_ANOMALY":208.498,"EPHEMERIS_TYPE":0,"CLASSIFICATION_TYPE":"U","NORAD_CAT_ID":67840,"ELEMENT_SET_NO":999,"REV_AT_EPOCH":400,"BSTAR":0.0016062,"MEAN_MOTION_DOT":0.00352034,"MEAN_MOTION_DDOT":0},{"OBJECT_NAME":"STARLINK-36656","OBJECT_ID":"2026-033W","EPOCH":"2026-03-05T18:22:47.097696","MEAN_MOTION":15.82073014,"ECCENTRICITY":0.0002129,"INCLINATION":42.997,"RA_OF_ASC_NODE":295.3688,"ARG_OF_PERICENTER":256.4288,"MEAN_ANOMALY":103.6347,"EPHEMERIS_TYPE":0,"CLASSIFICATION_TYPE":"U","NORAD_CAT_ID":67841,"ELEMENT_SET_NO":999,"REV_AT_EPOCH":400,"BSTAR":0.0010339,"MEAN_MOTION_DOT":0.00223482,"MEAN_MOTION_DDOT":0},{"OBJECT_NAME":"STARLINK-36653","OBJECT_ID":"2026-033X","EPOCH":"2026-03-05T18:21:42.187968","MEAN_MOTION":15.82007442,"ECCENTRICITY":0.0003161,"INCLINATION":42.9972,"RA_OF_ASC_NODE":295.3629,"ARG_OF_PERICENTER":171.8388,"MEAN_ANOMALY":188.2535,"EPHEMERIS_TYPE":0,"CLASSIFICATION_TYPE":"U","NORAD_CAT_ID":67842,"ELEMENT_SET_NO":999,"REV_AT_EPOCH":400,"BSTAR":0.0014658,"MEAN_MOTION_DOT":0.00319691,"MEAN_MOTION_DDOT":0},{"OBJECT_NAME":"STARLINK-36589","OBJECT_ID":"2026-033Y","EPOCH":"2026-03-05T18:20:37.696416","MEAN_MOTION":15.81984969,"ECCENTRICITY":0.0002108,"INCLINATION":42.9968,"RA_OF_ASC_NODE":295.3562,"ARG_OF_PERICENTER":275.6594,"MEAN_ANOMALY":84.4038,"EPHEMERIS_TYPE":0,"CLASSIFICATION_TYPE":"U","NORAD_CAT_ID":67843,"ELEMENT_SET_NO":999,"REV_AT_EPOCH":400,"BSTAR":0.001951,"MEAN_MOTION_DOT":0.0043076,"MEAN_MOTION_DDOT":0},{"OBJECT_NAME":"STARLINK-36598","OBJECT_ID":"2026-033Z","EPOCH":"2026-03-05T18:19:32.871360","MEAN_MOTION":15.81992082,"ECCENTRICITY":0.00024,"INCLINATION":42.9981,"RA_OF_ASC_NODE":295.3518,"ARG_OF_PERICENTER":287.6988,"MEAN_ANOMALY":72.3622,"EPHEMERIS_TYPE":0,"CLASSIFICATION_TYPE":"U","NORAD_CAT_ID":67844,"ELEMENT_SET_NO":999,"REV_AT_EPOCH":400,"BSTAR":0.0016068,"MEAN_MOTION_DOT":0.00351515,"MEAN_MOTION_DDOT":0},{"OBJECT_NAME":"STARLINK-36606","OBJECT_ID":"2026-033AA","EPOCH":"2026-03-05T18:18:28.280448","MEAN_MOTION":15.82053823,"ECCENTRICITY":0.0001951,"INCLINATION":42.997,"RA_OF_ASC_NODE":295.3444,"ARG_OF_PERICENTER":271.3192,"MEAN_ANOMALY":88.7456,"EPHEMERIS_TYPE":0,"CLASSIFICATION_TYPE":"U","NORAD_CAT_ID":67845,"ELEMENT_SET_NO":999,"REV_AT_EPOCH":400,"BSTAR":0.00077331,"MEAN_MOTION_DOT":0.00165749,"MEAN_MOTION_DDOT":0},{"OBJECT_NAME":"STARLINK-36658","OBJECT_ID":"2026-033AB","EPOCH":"2026-03-05T18:17:23.256672","MEAN_MOTION":15.82111776,"ECCENTRICITY":0.0002193,"INCLINATION":42.9967,"RA_OF_ASC_NODE":295.3373,"ARG_OF_PERICENTER":244.4099,"MEAN_ANOMALY":115.6546,"EPHEMERIS_TYPE":0,"CLASSIFICATION_TYPE":"U","NORAD_CAT_ID":67846,"ELEMENT_SET_NO":999,"REV_AT_EPOCH":400,"BSTAR":0.0010754,"MEAN_MOTION_DOT":0.00233159,"MEAN_MOTION_DDOT":0},{"OBJECT_NAME":"STARLINK-36618","OBJECT_ID":"2026-033AC","EPOCH":"2026-03-05T20:00:00.999360","MEAN_MOTION":15.92801883,"ECCENTRICITY":0.0001972,"INCLINATION":42.9844,"RA_OF_ASC_NODE":293.02,"ARG_OF_PERICENTER":275.4205,"MEAN_ANOMALY":152.8762,"EPHEMERIS_TYPE":0,"CLASSIFICATION_TYPE":"U","NORAD_CAT_ID":67847,"ELEMENT_SET_NO":999,"REV_AT_EPOCH":404,"BSTAR":-0.0036871,"MEAN_MOTION_DOT":-0.01320484,"MEAN_MOTION_DDOT":0.00050625},{"OBJECT_NAME":"STARLINK-36660","OBJECT_ID":"2026-033AD","EPOCH":"2026-03-05T18:16:18.499008","MEAN_MOTION":15.82091579,"ECCENTRICITY":0.0001884,"INCLINATION":42.9967,"RA_OF_ASC_NODE":295.3327,"ARG_OF_PERICENTER":264.005,"MEAN_ANOMALY":96.0607,"EPHEMERIS_TYPE":0,"CLASSIFICATION_TYPE":"U","NORAD_CAT_ID":67848,"ELEMENT_SET_NO":999,"REV_AT_EPOCH":400,"BSTAR":0.0011737,"MEAN_MOTION_DOT":0.00254914,"MEAN_MOTION_DDOT":0},{"OBJECT_NAME":"STARLINK-36602","OBJECT_ID":"2026-033AE","EPOCH":"2026-03-05T18:15:13.837248","MEAN_MOTION":15.82070215,"ECCENTRICITY":0.0001985,"INCLINATION":42.9969,"RA_OF_ASC_NODE":295.3246,"ARG_OF_PERICENTER":250.2157,"MEAN_ANOMALY":109.8501,"EPHEMERIS_TYPE":0,"CLASSIFICATION_TYPE":"U","NORAD_CAT_ID":67849,"ELEMENT_SET_NO":999,"REV_AT_EPOCH":400,"BSTAR":0.00077384,"MEAN_MOTION_DOT":0.00165994,"MEAN_MOTION_DDOT":0},{"OBJECT_NAME":"STARLINK-36840","OBJECT_ID":"2026-034A","EPOCH":"2026-03-05T17:58:16.548960","MEAN_MOTION":15.80967512,"ECCENTRICITY":7.36e-5,"INCLINATION":53.1591,"RA_OF_ASC_NODE":231.1085,"ARG_OF_PERICENTER":66.1685,"MEAN_ANOMALY":293.9415,"EPHEMERIS_TYPE":0,"CLASSIFICATION_TYPE":"U","NORAD_CAT_ID":67850,"ELEMENT_SET_NO":999,"REV_AT_EPOCH":331,"BSTAR":0.0011479,"MEAN_MOTION_DOT":0.00233095,"MEAN_MOTION_DDOT":0}]
